STARLINK-1654           
1 46326U 20062B   24183.48688923  .00017497  00000+0  11902-2 0  9999
2 46326  53.0533 263.1008 0001489  84.2130 275.9029 15.06412185211430
STARLINK-1673           
1 46327U 20062C   24183.48764754  .00034059  00000+0  21689-2 0  9993
2 46327  53.0531 262.6330 0002368   5.7750 354.3267 15.08476670211431
STARLINK-1686           
1 46328U 20062D   24183.42236683  .00009804  00000+0  67657-3 0  9999
2 46328  53.0518 243.1459 0001299  89.7751 270.3387 15.06375431211709
STARLINK-1695           
1 46329U 20062E   24183.45552766  .00002520  00000+0  18793-3 0  9991
2 46329  53.0546 243.0015 0001386  96.0373 264.0774 15.06409518211700
STARLINK-1710           
1 46330U 20062F   24183.57717753  .00001828  00000+0  14163-3 0  9992
2 46330  53.0544 242.4537 0001148  79.9673 280.1445 15.06392343211735
STARLINK-1719           
1 46331U 20062G   24183.61219506  .00010381  00000+0  71457-3 0  9994
2 46331  53.0531 262.2970 0001302  88.7504 271.3634 15.06409776211456
STARLINK-1721           
1 46332U 20062H   24183.58334491  .00153913  00000+0  32639-2 0  9999
2 46332  53.0328 198.3809 0003689 315.9278  96.2596 15.44025812212532
STARLINK-1723           
1 46333U 20062J   24183.50529039  .00008320  00000+0  57650-3 0  9998
2 46333  53.0544 262.7791 0001268  92.8953 267.2181 15.06416743211614
STARLINK-1725           
1 46334U 20062K   24183.57351750  .00007304  00000+0  50891-3 0  9990
2 46334  53.0543 242.7513 0001285  89.4351 270.6785 15.06387838211729
STARLINK-1727           
1 46335U 20062L   24183.60113416  .00008176  00000+0  56718-3 0  9992
2 46335  53.0534 262.3448 0001304  75.7169 284.3965 15.06397533211457
STARLINK-1738           
1 46336U 20062M   24183.45921752  .00005469  00000+0  38570-3 0  9994
2 46336  53.0527 242.9818 0001227  76.0512 284.0613 15.06404093211700
STARLINK-1750           
1 46337U 20062N   24183.60665273  .00008575  00000+0  59403-3 0  9994
2 46337  53.0531 242.3190 0001251  90.7114 269.4018 15.06390644211736
STARLINK-1752           
1 46338U 20062P   24183.59006255  .00001746  00000+0  13607-3 0  9991
2 46338  53.0538 262.3948 0001186  81.3396 278.7727 15.06408612211445
STARLINK-1759           
1 46340U 20062R   24183.59380364  .00015571  00000+0  10622-2 0  9994
2 46340  53.0539 262.6963 0001361  90.8263 269.2882 15.06389021211430
STARLINK-1760           
1 46341U 20062S   24183.56980514  .00008941  00000+0  61825-3 0  9990
2 46341  53.0534 242.4877 0001221  85.1161 274.9967 15.06405616211734
STARLINK-1762           
1 46342U 20062T   24183.48317836  .00011246  00000+0  77244-3 0  9997
2 46342  53.0532 262.8761 0001176  84.9116 275.2008 15.06409901211435
STARLINK-1764           
1 46343U 20062U   24183.61034207  .00009260  00000+0  63992-3 0  9999
2 46343  53.0530 242.3036 0001297  91.9448 268.1689 15.06387852211731
STARLINK-1765           
1 46344U 20062V   24183.56243668  .00009852  00000+0  67944-3 0  9995
2 46344  53.0532 242.5201 0001313  88.5957 271.5182 15.06395566211722
STARLINK-1767           
1 46345U 20062W   24183.49791707  .00013264  00000+0  90740-3 0  9992
2 46345  53.0550 262.8117 0001394  91.1646 268.9503 15.06410957211615
STARLINK-1547           
1 46347U 20062Y   24183.38963665 -.00001349  00000+0 -71661-4 0  9991
2 46347  53.0518 218.2907 0001294  85.7116 274.4020 15.06397828212037
STARLINK-1553           
1 46348U 20062Z   24183.56611587  .00002341  00000+0  17596-3 0  9992
2 46348  53.0534 242.5030 0001273  88.8993 271.2142 15.06405102211727
STARLINK-1575           
1 46349U 20062AA  24183.49650057  .00005402  00000+0  38100-3 0  9995
2 46349  53.0522 217.8123 0000892 108.7658 251.3428 15.06426497212243
STARLINK-1646           
1 46351U 20062AC  24183.46658032  .00001892  00000+0  14590-3 0  9992
2 46351  53.0532 242.9487 0001286  96.7901 263.3234 15.06393039211729
STARLINK-1653           
1 46352U 20062AD  24183.58085030  .00010481  00000+0  72152-3 0  9990
2 46352  53.0540 242.4375 0001415  92.5691 267.5460 15.06398262211735
STARLINK-1656           
1 46353U 20062AE  24183.44630998  .00015577  00000+0  10624-2 0  9991
2 46353  53.0541 263.0412 0001406  95.5274 264.5875 15.06398043211428
STARLINK-1657           
1 46354U 20062AF  24183.50161051  .00015630  00000+0  10652-2 0  9999
2 46354  53.0546 262.7946 0001464  91.7062 268.4094 15.06423535211431
STARLINK-1661           
1 46355U 20062AG  24183.54215167  .00016018  00000+0  10918-2 0  9998
2 46355  53.0536 262.6108 0001302  85.1510 274.9627 15.06398971211626
STARLINK-1665           
1 46356U 20062AH  24183.49055608  .00015073  00000+0  10279-2 0  9995
2 46356  53.0539 262.8830 0001319  82.6911 277.4228 15.06425998211433
STARLINK-1666           
1 46357U 20062AJ  24183.55137686  .00009579  00000+0  66143-3 0  9996
2 46357  53.0527 242.5676 0001434  93.4857 266.6296 15.06381288211721
STARLINK-1690           
1 46358U 20062AK  24183.59744507  .00014709  00000+0  10045-2 0  9997
2 46358  53.0526 262.3597 0001290  89.2215 270.8922 15.06392625211454
STARLINK-1707           
1 46359U 20062AL  24183.37858470 -.00000744  00000+0 -31056-4 0  9992
2 46359  53.0531 218.3415 0001251  97.7461 262.3670 15.06395978212041
STARLINK-1713           
1 46360U 20062AM  24183.40069391 -.00003970  00000+0 -24784-3 0  9997
2 46360  53.0531 218.2476 0001130  80.5050 279.6067 15.06395128212058
STARLINK-1722           
1 46361U 20062AN  24183.50296086 -.00000188  00000+0  62356-5 0  9998
2 46361  53.0531 217.7763 0001124  79.9256 280.1859 15.06390034212063
STARLINK-1726           
1 46362U 20062AP  24183.48179280  .00002155  00000+0  16353-3 0  9991
2 46362  53.0537 217.8834 0000895 102.4704 257.6385 15.06395275212249
STARLINK-1739           
1 46363U 20062AQ  24183.53982951  .00000801  00000+0  72676-4 0  9992
2 46363  53.0540 217.6141 0001303  84.2070 275.9068 15.06395240212075
STARLINK-1763           
1 46364U 20062AR  24183.34361454 -.00007433  00000+0 -48079-3 0  9990
2 46364  53.0516 199.0059 0001076  77.1825 282.9284 15.06389933212313
STARLINK-1651           
1 46366U 20062AT  24183.50759472  .00002162  00000+0  16397-3 0  9991
2 46366  53.0532 217.7648 0000850  93.7672 266.3414 15.06396628212060
STARLINK-1658           
1 46368U 20062AV  24183.58334491  .00214695  00000+0  13135-2 0  9993
2 46368  53.0472 213.8107 0012510  15.7563 103.7700 15.76094204  5997
STARLINK-1670           
1 46370U 20062AX  24183.60294075  .00013349  00000+0  91241-3 0  9990
2 46370  53.0530 242.3378 0001238  91.0413 269.0718 15.06437637211738
STARLINK-1688           
1 46371U 20062AY  24183.58334491  .00256838  00000+0  13542-2 0  9994
2 46371  53.0461 212.4196 0012466  18.6945 310.7589 15.79305944212329
STARLINK-1689           
1 46372U 20062AZ  24183.60481420  .00015376  00000+0  10483-2 0  9994
2 46372  53.0536 262.3288 0001223  86.3355 273.7773 15.06421773211450
STARLINK-1711           
1 46374U 20062BB  24183.35325228  .00005306  00000+0  37505-3 0  9998
2 46374  53.0522 193.4602 0001232  95.6993 264.4137 15.06378077212395
STARLINK-1724           
1 46375U 20062BC  24183.50021594  .00000465  00000+0  50092-4 0  9993
2 46375  53.0530 217.7986 0001294  89.4092 270.7045 15.06394062212243
STARLINK-1742           
1 46376U 20062BD  24183.38227809  .00000874  00000+0  77550-4 0  9999
2 46376  53.0529 218.3259 0001218  86.7839 273.3289 15.06403054212046
STARLINK-1758           
1 46380U 20062BH  24183.54768051  .00009442  00000+0  65215-3 0  9995
2 46380  53.0529 242.5844 0001242  92.5875 267.5256 15.06387720211726
STARLINK-1769           
1 46382U 20062BK  24183.39702503 -.00000924  00000+0 -43176-4 0  9991
2 46382  53.0539 218.2640 0001011  83.1693 276.9411 15.06390820212050
STARLINK-1770           
1 46383U 20062BL  24183.51634346  .00008356  00000+0  57926-3 0  9997
2 46383  53.0534 262.7254 0001308  92.0479 268.0659 15.06395572211437
STARLINK-1771           
1 46384U 20062BM  24183.52003929  .00013840  00000+0  94651-3 0  9996
2 46384  53.0543 262.7099 0001655  89.0888 271.0290 15.06386346211614
STARLINK-1644           
1 46532U 20070A   24183.38734229  .00000655  00000+0  62841-4 0  9995
2 46532  53.0548  63.3052 0001540  90.4781 269.6384 15.06397881206616
STARLINK-1648           
1 46533U 20070B   24183.39839239 -.00001443  00000+0 -77969-4 0  9999
2 46533  53.0552  63.2537 0001321  88.9891 271.1249 15.06416345206615
STARLINK-1659           
1 46534U 20070C   24183.37998251  .00008430  00000+0  58438-3 0  9998
2 46534  53.0542  63.3369 0000983  93.7736 266.3366 15.06386671206618
STARLINK-1663           
1 46535U 20070D   24183.36891453  .00020000  00000+0  13580-2 0  9999
2 46535  53.0544  63.3878 0001544  94.3130 265.8035 15.06393448206601
STARLINK-1672           
1 46537U 20070F   24183.39471757  .00003507  00000+0  25420-3 0  9995
2 46537  53.0549  63.2720 0001533  82.6308 277.4856 15.06404115206613
STARLINK-1678           
1 46538U 20070G   24183.37260482  .00003088  00000+0  22608-3 0  9994
2 46538  53.0548  63.3709 0001481  90.3237 269.7922 15.06401175206600
STARLINK-1687           
1 46541U 20070K   24183.35233149  .00002273  00000+0  17145-3 0  9991
2 46541  53.0557  43.4614 0001568  93.4202 266.6966 15.06392321206886
STARLINK-1692           
1 46542U 20070L   24183.08878153  .00024622  00000+0  16665-2 0  9999
2 46542  53.0545  64.6452 0001310  85.8316 274.2822 15.06390357206563
STARLINK-1693           
1 46543U 20070M   24183.40577740  .00005260  00000+0  37172-3 0  9998
2 46543  53.0546  63.2198 0001432  94.8308 265.2844 15.06403462206615
STARLINK-1694           
1 46544U 20070N   24183.60066770  .00015825  00000+0  10788-2 0  9998
2 46544  53.0548  47.3477 0001591  86.6835 273.4336 15.06403031206856
STARLINK-1696           
1 46545U 20070P   24182.97819832  .00000363  00000+0  43257-4 0  9993
2 46545  53.0547  65.1410 0001327  86.6578 273.4562 15.06397234206546
